sat_4_7
1 00007U 00000A   18001.00000001 -.00002182  00000-0 -36183-4 0  0010
2 00007 096.0000 120.0000 0000623 005.0000 245.0000 15.731142000010
